NORAD_CAT_ID,OBJECT_NAME,OBJECT_TYPE,EPOCH,MEAN_MOTION,ECCENTRICITY,INCLINATION,RA_OF_ASC_NODE,ARG_OF_PERICENTER,MEAN_ANOMALY,BSTAR,MEAN_MOTION_DOT,MEAN_MOTION_DDOT,TLE_LINE0,TLE_LINE1,TLE_LINE2,SEMIMAJOR_AXIS,PERIOD,APOGEE,PERIGEE,DECAYED
53555.0,STARLINK-4504,PAYLOAD,2024-04-20 10:27:26,15.08850121,0.000139,53.2163,273.8123,85.0377,275.0774,0.00043033,6.569e-05,0.0,0 STARLINK-4504,1 53555U 22101AE  24111.43572381  .00006569  00000-0  43033-3 0  9993,2 53555  53.2163 273.8123 0001390  85.0377 275.0774 15.08850121 93065,6917.849,95.437,540.676,538.753,0.0
53555.0,STARLINK-4504,PAYLOAD,2024-04-20 19:59:46,15.08822221,0.00015,53.2165,272.0272,82.219,277.8972,-0.00015866,-2.811e-05,0.0,0 STARLINK-4504,1 53555U 22101AE  24111.83317249 -.00002811  00000-0 -15866-3 0  9998,2 53555  53.2165 272.0272 0001500  82.2190 277.8972 15.08822221 92461,6917.935,95.439,540.837,538.762,0.0
53555.0,STARLINK-4504,PAYLOAD,2024-04-21 10:18:14,15.08828116,0.0001437,53.2165,269.3502,83.4493,276.6662,0.00058675,9.059e-05,0.0,0 STARLINK-4504,1 53555U 22101AE  24112.42933977  .00009059  00000-0  58675-3 0  9990,2 53555  53.2165 269.3502 0001437  83.4493 276.6662 15.08828116 93210,6917.917,95.438,540.776,538.788,0.0
53555.0,STARLINK-4504,PAYLOAD,2024-04-21 19:50:33,15.08867599,0.0001686,53.2168,267.5665,77.0518,283.0662,0.0018098,0.00028654,0.0,0 STARLINK-4504,1 53555U 22101AE  24112.82677470  .00028654  00000-0  18098-2 0  9993,2 53555  53.2168 267.5665 0001686  77.0518 283.0662 15.08867599 92619,6917.796,95.436,540.827,538.495,0.0
53555.0,STARLINK-4504,PAYLOAD,2024-04-22 14:55:10,15.08858613,0.0001349,53.217,263.9995,104.2583,255.8559,0.0012545,0.00019744,0.0,0 STARLINK-4504,1 53555U 22101AE  24113.62165137  .00019744  00000-0  12545-2 0  9995,2 53555  53.2170 263.9995 0001349 104.2583 255.8559 15.08858613 92731,6917.823,95.436,540.622,538.755,0.0
53555.0,STARLINK-4504,PAYLOAD,2024-04-23 14:45:56,15.08840218,0.0001777,53.2186,259.5375,79.8006,280.3187,-0.0011293,-0.00018216,0.0,0 STARLINK-4504,1 53555U 22101AE  24114.61523257 -.00018216  00000-0 -11293-2 0  9990,2 53555  53.2186 259.5375 0001777  79.8006 280.3187 15.08840218 93545,6917.88,95.438,540.974,538.515,0.0
53555.0,STARLINK-4504,PAYLOAD,2024-04-23 19:32:05,15.08837807,0.0001483,53.2181,258.6443,65.717,294.3977,-0.00071039,-0.00011575,0.0,0 STARLINK-4504,1 53555U 22101AE  24114.81395697 -.00011575  00000-0 -71039-3 0  9993,2 53555  53.2181 258.6443 0001483  65.7170 294.3977 15.08837807 92918,6917.887,95.438,540.778,538.726,0.0
53555.0,STARLINK-4504,PAYLOAD,2024-04-24 13:01:21,15.08805085,0.0001374,53.2177,255.3702,80.1933,279.9214,0.00067595,0.00010476,0.0,0 STARLINK-4504,1 53555U 22101AE  24115.54261368  .00010476  00000-0  67595-3 0  9990,2 53555  53.2177 255.3702 0001374  80.1933 279.9214 15.08805085 93021,6917.987,95.44,540.803,538.902,0.0
53555.0,STARLINK-4504,PAYLOAD,2024-04-24 14:36:44,15.08813681,0.0001467,53.2179,255.073,80.1584,279.9574,-5.442e-05,-1.153e-05,0.0,0 STARLINK-4504,1 53555U 22101AE  24115.60885297 -.00001153  00000-0 -54420-4 0  9998,2 53555  53.2179 255.0730 0001467  80.1584 279.9574 15.08813681 93699,6917.961,95.439,540.841,538.811,0.0
53555.0,STARLINK-4504,PAYLOAD,2024-04-25 12:52:09,15.08833956,0.0001201,53.2177,250.9087,92.155,267.958,0.0007051,0.0001095,0.0,0 STARLINK-4504,1 53555U 22101AE  24116.53622278  .00010950  00000-0  70510-3 0  9999,2 53555  53.2177 250.9087 0001201  92.1550 267.9580 15.08833956 93172,6917.899,95.438,540.595,538.933,0.0
53555.0,STARLINK-4504,PAYLOAD,2024-04-25 14:27:32,15.08835641,0.0001184,53.2179,250.6112,93.1306,266.9822,0.0007145,0.000111,0.0,0 STARLINK-4504,1 53555U 22101AE  24116.60246295  .00011100  00000-0  71450-3 0  9990,2 53555  53.2179 250.6112 0001184  93.1306 266.9822 15.08835641 93845,6917.894,95.438,540.578,538.94,0.0
53555.0,STARLINK-4504,PAYLOAD,2024-04-26 14:18:19,15.08857277,0.0001155,53.2175,246.1558,95.3475,264.7649,0.00069672,0.00010823,0.0,0 STARLINK-4504,1 53555U 22101AE  24117.59605811  .00010823  00000-0  69672-3 0  9996,2 53555  53.2175 246.1558 0001155  95.3475 264.7649 15.08857277 93992,6917.828,95.436,540.492,538.894,0.0
53555.0,STARLINK-4504,PAYLOAD,2024-04-26 15:53:42,15.08863489,0.0001135,53.2174,245.8599,87.531,272.5812,0.00088171,0.00013781,0.0,0 STARLINK-4504,1 53555U 22101AE  24117.66229685  .00013781  00000-0  88171-3 0  9996,2 53555  53.2174 245.8599 0001135  87.5310 272.5812 15.08863489 93341,6917.809,95.436,540.459,538.888,0.0
53555.0,STARLINK-4504,PAYLOAD,2024-04-27 12:33:42,15.08837986,0.0001453,53.2165,241.9969,102.8914,257.224,-0.00044191,-7.314e-05,0.0,0 STARLINK-4504,1 53555U 22101AE  24118.52341338 -.00007314  00000-0 -44191-3 0  9993,2 53555  53.2165 241.9969 0001453 102.8914 257.2240 15.08837986 93475,6917.887,95.438,540.757,538.746,0.0
53555.0,STARLINK-4504,PAYLOAD,2024-04-27 14:09:06,15.08838104,0.0001392,53.2167,241.6996,103.4382,256.6766,-0.00033211,-5.569e-05,0.0,0 STARLINK-4504,1 53555U 22101AE  24118.58965388 -.00005569  00000-0 -33211-3 0  9997,2 53555  53.2167 241.6996 0001392 103.4382 256.6766 15.08838104 94146,6917.886,95.438,540.714,538.788,0.0
53555.0,STARLINK-4504,PAYLOAD,2024-04-27 15:44:29,15.08831087,0.0001481,53.2169,241.4031,104.534,255.5817,0.00063901,9.894e-05,0.0,0 STARLINK-4504,1 53555U 22101AE  24118.65589605  .00009894  00000-0  63901-3 0  9991,2 53555  53.2169 241.4031 0001481 104.5340 255.5817 15.08831087 94150,6917.908,95.438,540.797,538.748,0.0
53555.0,STARLINK-4504,PAYLOAD,2024-04-28 12:24:30,15.08810655,0.0001346,53.2167,237.5337,97.0558,263.0587,0.00031076,4.657e-05,0.0,0 STARLINK-4504,1 53555U 22101AE  24119.51702378  .00004657  00000-0  31076-3 0  9991,2 53555  53.2167 237.5337 0001346  97.0558 263.0587 15.08810655 93627,6917.97,95.439,540.766,538.904,0.0
53555.0,STARLINK-4504,PAYLOAD,2024-04-28 13:59:54,15.08814211,0.0001187,53.2168,237.2379,94.036,266.0768,-7.0823e-05,-1.414e-05,0.0,0 STARLINK-4504,1 53555U 22101AE  24119.58326432 -.00001414  00000-0 -70823-4 0  9995,2 53555  53.2168 237.2379 0001187  94.0360 266.0768 15.08814211 94292,6917.959,95.439,540.645,539.003,0.0
53555.0,STARLINK-4504,PAYLOAD,2024-04-28 17:10:40,15.08814841,0.0001066,53.2164,236.6427,96.3319,263.7794,2.4324e-05,9.9e-07,0.0,0 STARLINK-4504,1 53555U 22101AE  24119.71574671  .00000099  00000-0  24324-4 0  9991,2 53555  53.2164 236.6427 0001066  96.3319 263.7794 15.08814841 94315,6917.957,95.439,540.56,539.085,0.0
53555.0,STARLINK-4504,PAYLOAD,2024-04-29 13:50:41,15.08857158,0.000106,53.2162,232.7784,80.2699,279.8413,0.0017114,0.00027067,0.0,0 STARLINK-4504,1 53555U 22101AE  24120.57687210  .00027067  00000-0  17114-2 0  9992,2 53555  53.2162 232.7784 0001060  80.2699 279.8413 15.08857158 93787,6917.828,95.436,540.426,538.96,0.0
53555.0,STARLINK-4504,PAYLOAD,2024-04-30 13:41:28,15.08855288,0.0001037,53.2155,228.3177,83.561,276.55,0.00042691,6.516e-05,0.0,0 STARLINK-4504,1 53555U 22101AE  24121.57046318  .00006516  00000-0  42691-3 0  9996,2 53555  53.2155 228.3177 0001037  83.5610 276.5500 15.08855288 93939,6917.834,95.437,540.416,538.981,0.0
53555.0,STARLINK-4504,PAYLOAD,2024-05-01 13:32:14,15.088554,0.0001061,53.2164,223.8592,77.8495,282.2616,0.00052068,8.012e-05,0.0,0 STARLINK-4504,1 53555U 22101AE  24122.56405984  .00008012  00000-0  52068-3 0  9996,2 53555  53.2164 223.8592 0001061  77.8495 282.2616 15.08855400 94089,6917.833,95.437,540.432,538.964,0.0
53555.0,STARLINK-4504,PAYLOAD,2024-05-02 13:23:02,15.08834748,0.0001201,53.2166,219.3974,88.9425,271.1704,-0.00010466,-1.953e-05,0.0,0 STARLINK-4504,1 53555U 22101AE  24123.55766279 -.00001953  00000-0 -10466-3 0  9998,2 53555  53.2166 219.3974 0001201  88.9425 271.1704 15.08834748 94231,6917.896,95.438,540.592,538.931,0.0
53555.0,STARLINK-4504,PAYLOAD,2024-05-02 22:55:20,15.0884485,0.0001473,53.2189,217.6152,96.2697,263.8463,0.00010542,1.39e-05,0.0,0 STARLINK-4504,1 53555U 22101AE  24123.95509951  .00001390  00000-0  10542-3 0  9992,2 53555  53.2189 217.6152 0001473  96.2697 263.8463 15.08844850 94290,6917.866,95.437,540.75,538.712,0.0
53555.0,STARLINK-4504,PAYLOAD,2024-05-03 13:13:48,15.08853894,0.0001568,53.219,214.9392,100.9777,259.1391,0.00071475,0.0001111,0.0,0 STARLINK-4504,1 53555U 22101AE  24124.55125826  .00011110  00000-0  71475-3 0  9997,2 53555  53.2190 214.9392 0001568 100.9777 259.1391 15.08853894 95045,6917.838,95.437,540.788,538.618,0.0
53555.0,STARLINK-4504,PAYLOAD,2024-05-03 16:24:34,15.0885835,0.0001425,53.2181,214.3433,95.1985,264.917,0.0007388,0.00011495,0.0,0 STARLINK-4504,1 53555U 22101AE  24124.68373599  .00011495  00000-0  73880-3 0  9991,2 53555  53.2181 214.3433 0001425  95.1985 264.9170 15.08858350 95066,6917.824,95.436,540.675,538.704,0.0
53555.0,STARLINK-4504,PAYLOAD,2024-05-03 22:46:06,15.08868356,0.0001306,53.2173,213.1527,83.6537,276.4604,0.00089251,0.00013956,0.0,0 STARLINK-4504,1 53555U 22101AE  24124.94869077  .00013956  00000-0  89251-3 0  9994,2 53555  53.2173 213.1527 0001306  83.6537 276.4604 15.08868356 94449,6917.794,95.436,540.562,538.755,0.0
53555.0,STARLINK-4504,PAYLOAD,2024-05-04 13:04:36,15.08823164,0.0001354,53.218,210.479,87.355,272.7597,-0.00038787,-6.453e-05,0.0,0 STARLINK-4504,1 53555U 22101AE  24125.54486266 -.00006453  00000-0 -38787-3 0  9990,2 53555  53.2180 210.4790 0001354  87.3550 272.7597 15.08823164 94536,6917.932,95.439,540.734,538.86,0.0
53555.0,STARLINK-4504,PAYLOAD,2024-05-05 12:55:23,15.08847658,0.0001256,53.2164,206.0159,72.1473,287.9656,0.001242,0.00019538,0.0,0 STARLINK-4504,1 53555U 22101AE  24126.53847085  .00019538  00000-0  12420-2 0  9991,2 53555  53.2164 206.0159 0001256  72.1473 287.9656 15.08847658 94689,6917.857,95.437,540.591,538.853,0.0
53555.0,STARLINK-4504,PAYLOAD,2024-05-05 14:30:46,15.08851162,0.0001259,53.2164,205.7184,71.835,288.2779,0.0013005,0.00020476,0.0,0 STARLINK-4504,1 53555U 22101AE  24126.60471041  .00020476  00000-0  13005-2 0  9997,2 53555  53.2164 205.7184 0001259  71.8350 288.2779 15.08851162 95356,6917.846,95.437,540.582,538.84,0.0
